[
  {
    "OBJECT_NAME": "STARLINK-3584",
    "OBJECT_ID": "22022AK",
    "EPOCH": "2025-11-10T22:16:06.303936",
    "MEAN_MOTION": 15.08830471,
    "ECCENTRICITY": 0.0001373,
    "INCLINATION": 53.216,
    "RA_OF_ASC_NODE": 172.2624,
    "ARG_OF_PERICENTER": 92.2998,
    "MEAN_ANOMALY": 267.8151,
    "EPHEMERIS_TYPE": 0,
    "CLASSIFICATION_TYPE": "U",
    "NORAD_CAT_ID": 51885,
    "ELEMENT_SET_NO": 999,
    "REV_AT_EPOCH": 20531,
    "BSTAR": 0.00013817,
    "MEAN_MOTION_DOT": 1.911e-05,
    "MEAN_MOTION_DDOT": 0.0,
    "TLE_LINE1": "1 51885U 22022AK  25314.92785074  .00001911  00000+0  13817-3 0  9996",
    "TLE_LINE2": "2 51885  53.2160 172.2624 0001373  92.2998 267.8151 15.08830471205311",
    "COMMENT": "Grouped by shell and plane from TLE"
  },
  {
    "OBJECT_NAME": "STARLINK-3565",
    "OBJECT_ID": "22022AL",
    "EPOCH": "2025-11-11T00:02:04.314048",
    "MEAN_MOTION": 15.08852741,
    "ECCENTRICITY": 0.0001668,
    "INCLINATION": 53.2167,
    "RA_OF_ASC_NODE": 171.9326,
    "ARG_OF_PERICENTER": 91.3206,
    "MEAN_ANOMALY": 268.7978,
    "EPHEMERIS_TYPE": 0,
    "CLASSIFICATION_TYPE": "U",
    "NORAD_CAT_ID": 51886,
    "ELEMENT_SET_NO": 999,
    "REV_AT_EPOCH": 20533,
    "BSTAR": 0.00014229,
    "MEAN_MOTION_DOT": 1.978e-05,
    "MEAN_MOTION_DDOT": 0.0,
    "TLE_LINE1": "1 51886U 22022AL  25315.00143882  .00001978  00000+0  14229-3 0  9993",
    "TLE_LINE2": "2 51886  53.2167 171.9326 0001668  91.3206 268.7978 15.08852741205336",
    "COMMENT": "Grouped by shell and plane from TLE"
  },
  {
    "OBJECT_NAME": "STARLINK-3551",
    "OBJECT_ID": "22022AM",
    "EPOCH": "2025-11-10T23:46:10.727616",
    "MEAN_MOTION": 15.08842057,
    "ECCENTRICITY": 0.0001551,
    "INCLINATION": 53.2156,
    "RA_OF_ASC_NODE": 171.9818,
    "ARG_OF_PERICENTER": 92.408,
    "MEAN_ANOMALY": 267.709,
    "EPHEMERIS_TYPE": 0,
    "CLASSIFICATION_TYPE": "U",
    "NORAD_CAT_ID": 51887,
    "ELEMENT_SET_NO": 999,
    "REV_AT_EPOCH": 20532,
    "BSTAR": 5.294400000000001e-05,
    "MEAN_MOTION_DOT": 5.55e-06,
    "MEAN_MOTION_DDOT": 0.0,
    "TLE_LINE1": "1 51887U 22022AM  25314.99040194  .00000555  00000+0  52944-4 0  9990",
    "TLE_LINE2": "2 51887  53.2156 171.9818 0001551  92.4080 267.7090 15.08842057205326",
    "COMMENT": "Grouped by shell and plane from TLE"
  },
  {
    "OBJECT_NAME": "STARLINK-3536",
    "OBJECT_ID": "22022AN",
    "EPOCH": "2025-11-10T23:56:44.873376",
    "MEAN_MOTION": 15.08861875,
    "ECCENTRICITY": 0.0001566,
    "INCLINATION": 53.2158,
    "RA_OF_ASC_NODE": 171.9493,
    "ARG_OF_PERICENTER": 85.1329,
    "MEAN_ANOMALY": 274.9842,
    "EPHEMERIS_TYPE": 0,
    "CLASSIFICATION_TYPE": "U",
    "NORAD_CAT_ID": 51888,
    "ELEMENT_SET_NO": 999,
    "REV_AT_EPOCH": 20533,
    "BSTAR": 0.00021868000000000001,
    "MEAN_MOTION_DOT": 3.196e-05,
    "MEAN_MOTION_DDOT": 0.0,
    "TLE_LINE1": "1 51888U 22022AN  25314.99774159  .00003196  00000+0  21868-3 0  9990",
    "TLE_LINE2": "2 51888  53.2158 171.9493 0001566  85.1329 274.9842 15.08861875205334",
    "COMMENT": "Grouped by shell and plane from TLE"
  },
  {
    "OBJECT_NAME": "STARLINK-3547",
    "OBJECT_ID": "22022AP",
    "EPOCH": "2025-11-10T23:30:16.280640",
    "MEAN_MOTION": 15.08832214,
    "ECCENTRICITY": 0.0001413,
    "INCLINATION": 53.2158,
    "RA_OF_ASC_NODE": 172.0296,
    "ARG_OF_PERICENTER": 87.4616,
    "MEAN_ANOMALY": 272.6538,
    "EPHEMERIS_TYPE": 0,
    "CLASSIFICATION_TYPE": "U",
    "NORAD_CAT_ID": 51889,
    "ELEMENT_SET_NO": 999,
    "REV_AT_EPOCH": 20532,
    "BSTAR": 0.0,
    "MEAN_MOTION_DOT": -1.082e-05,
    "MEAN_MOTION_DDOT": 0.0,
    "TLE_LINE1": "1 51889U 22022AP  25314.97935510 -.00001082  00000+0 -49896-4 0  9995",
    "TLE_LINE2": "2 51889  53.2158 172.0296 0001413  87.4616 272.6538 15.08832214205324",
    "COMMENT": "Grouped by shell and plane from TLE"
  },
  {
    "OBJECT_NAME": "STARLINK-3549",
    "OBJECT_ID": "22022AR",
    "EPOCH": "2025-11-10T21:49:33.982176",
    "MEAN_MOTION": 15.08854836,
    "ECCENTRICITY": 0.0001294,
    "INCLINATION": 53.2144,
    "RA_OF_ASC_NODE": 172.3424,
    "ARG_OF_PERICENTER": 88.1181,
    "MEAN_ANOMALY": 271.9959,
    "EPHEMERIS_TYPE": 0,
    "CLASSIFICATION_TYPE": "U",
    "NORAD_CAT_ID": 51891,
    "ELEMENT_SET_NO": 999,
    "REV_AT_EPOCH": 20536,
    "BSTAR": 0.00014104,
    "MEAN_MOTION_DOT": 1.958e-05,
    "MEAN_MOTION_DDOT": 0.0,
    "TLE_LINE1": "1 51891U 22022AR  25314.90942109  .00001958  00000+0  14104-3 0  9996",
    "TLE_LINE2": "2 51891  53.2144 172.3424 0001294  88.1181 271.9959 15.08854836205367",
    "COMMENT": "Grouped by shell and plane from TLE"
  },
  {
    "OBJECT_NAME": "STARLINK-3587",
    "OBJECT_ID": "22022AS",
    "EPOCH": "2025-11-10T23:35:34.915200",
    "MEAN_MOTION": 15.08837412,
    "ECCENTRICITY": 0.000147,
    "INCLINATION": 53.2155,
    "RA_OF_ASC_NODE": 172.0126,
    "ARG_OF_PERICENTER": 92.3343,
    "MEAN_ANOMALY": 267.7818,
    "EPHEMERIS_TYPE": 0,
    "CLASSIFICATION_TYPE": "U",
    "NORAD_CAT_ID": 51892,
    "ELEMENT_SET_NO": 999,
    "REV_AT_EPOCH": 20532,
    "BSTAR": 5.9514e-05,
    "MEAN_MOTION_DOT": 6.59e-06,
    "MEAN_MOTION_DDOT": 0.0,
    "TLE_LINE1": "1 51892U 22022AS  25314.98304300  .00000659  00000+0  59514-4 0  9992",
    "TLE_LINE2": "2 51892  53.2155 172.0126 0001470  92.3343 267.7818 15.08837412205323",
    "COMMENT": "Grouped by shell and plane from TLE"
  },
  {
    "OBJECT_NAME": "STARLINK-3579",
    "OBJECT_ID": "22022AT",
    "EPOCH": "2025-11-11T00:49:45.996096",
    "MEAN_MOTION": 15.08838483,
    "ECCENTRICITY": 0.000157,
    "INCLINATION": 53.2152,
    "RA_OF_ASC_NODE": 171.7845,
    "ARG_OF_PERICENTER": 91.3574,
    "MEAN_ANOMALY": 268.7598,
    "EPHEMERIS_TYPE": 0,
    "CLASSIFICATION_TYPE": "U",
    "NORAD_CAT_ID": 51893,
    "ELEMENT_SET_NO": 999,
    "REV_AT_EPOCH": 20539,
    "BSTAR": 0.00011043,
    "MEAN_MOTION_DOT": 1.47e-05,
    "MEAN_MOTION_DDOT": 0.0,
    "TLE_LINE1": "1 51893U 22022AT  25315.03456014  .00001470  00000+0  11043-3 0  9996",
    "TLE_LINE2": "2 51893  53.2152 171.7845 0001570  91.3574 268.7598 15.08838483205393",
    "COMMENT": "Grouped by shell and plane from TLE"
  },
  {
    "OBJECT_NAME": "STARLINK-3595",
    "OBJECT_ID": "22022AU",
    "EPOCH": "2025-11-11T00:55:04.256544",
    "MEAN_MOTION": 15.08838844,
    "ECCENTRICITY": 0.0001471,
    "INCLINATION": 53.2138,
    "RA_OF_ASC_NODE": 171.7675,
    "ARG_OF_PERICENTER": 94.2531,
    "MEAN_ANOMALY": 265.863,
    "EPHEMERIS_TYPE": 0,
    "CLASSIFICATION_TYPE": "U",
    "NORAD_CAT_ID": 51894,
    "ELEMENT_SET_NO": 999,
    "REV_AT_EPOCH": 20539,
    "BSTAR": 0.00010523000000000001,
    "MEAN_MOTION_DOT": 1.387e-05,
    "MEAN_MOTION_DDOT": 0.0,
    "TLE_LINE1": "1 51894U 22022AU  25315.03824371  .00001387  00000+0  10523-3 0  9991",
    "TLE_LINE2": "2 51894  53.2138 171.7675 0001471  94.2531 265.8630 15.08838844205390",
    "COMMENT": "Grouped by shell and plane from TLE"
  },
  {
    "OBJECT_NAME": "STARLINK-3594",
    "OBJECT_ID": "22022AV",
    "EPOCH": "2025-11-11T00:44:29.435136",
    "MEAN_MOTION": 15.08831382,
    "ECCENTRICITY": 0.0001073,
    "INCLINATION": 53.2177,
    "RA_OF_ASC_NODE": 171.8023,
    "ARG_OF_PERICENTER": 82.2236,
    "MEAN_ANOMALY": 277.8878,
    "EPHEMERIS_TYPE": 0,
    "CLASSIFICATION_TYPE": "U",
    "NORAD_CAT_ID": 51895,
    "ELEMENT_SET_NO": 999,
    "REV_AT_EPOCH": 20533,
    "BSTAR": 1.1159e-06,
    "MEAN_MOTION_DOT": -2.7e-06,
    "MEAN_MOTION_DDOT": 0.0,
    "TLE_LINE1": "1 51895U 22022AV  25315.03089624 -.00000270  00000+0  11159-5 0  9995",
    "TLE_LINE2": "2 51895  53.2177 171.8023 0001073  82.2236 277.8878 15.08831382205330",
    "COMMENT": "Grouped by shell and plane from TLE"
  },
  {
    "OBJECT_NAME": "STARLINK-3593",
    "OBJECT_ID": "22022AW",
    "EPOCH": "2025-11-11T01:16:18.094944",
    "MEAN_MOTION": 15.08840574,
    "ECCENTRICITY": 0.0001451,
    "INCLINATION": 53.2169,
    "RA_OF_ASC_NODE": 171.921,
    "ARG_OF_PERICENTER": 92.8617,
    "MEAN_ANOMALY": 267.2541,
    "EPHEMERIS_TYPE": 0,
    "CLASSIFICATION_TYPE": "U",
    "NORAD_CAT_ID": 51896,
    "ELEMENT_SET_NO": 999,
    "REV_AT_EPOCH": 20538,
    "BSTAR": 9.436500000000001e-05,
    "MEAN_MOTION_DOT": 1.214e-05,
    "MEAN_MOTION_DDOT": 0.0,
    "TLE_LINE1": "1 51896U 22022AW  25315.05298721  .00001214  00000+0  94365-4 0  9995",
    "TLE_LINE2": "2 51896  53.2169 171.9210 0001451  92.8617 267.2541 15.08840574205389",
    "COMMENT": "Grouped by shell and plane from TLE"
  },
  {
    "OBJECT_NAME": "STARLINK-3598",
    "OBJECT_ID": "22022AX",
    "EPOCH": "2025-11-11T00:39:08.358048",
    "MEAN_MOTION": 15.08858838,
    "ECCENTRICITY": 0.0001326,
    "INCLINATION": 53.2151,
    "RA_OF_ASC_NODE": 171.8171,
    "ARG_OF_PERICENTER": 84.3226,
    "MEAN_ANOMALY": 275.7917,
    "EPHEMERIS_TYPE": 0,
    "CLASSIFICATION_TYPE": "U",
    "NORAD_CAT_ID": 51897,
    "ELEMENT_SET_NO": 999,
    "REV_AT_EPOCH": 20533,
    "BSTAR": 0.00035013,
    "MEAN_MOTION_DOT": 5.292e-05,
    "MEAN_MOTION_DDOT": 0.0,
    "TLE_LINE1": "1 51897U 22022AX  25315.02718007  .00005292  00000+0  35013-3 0  9991",
    "TLE_LINE2": "2 51897  53.2151 171.8171 0001326  84.3226 275.7917 15.08858838205337",
    "COMMENT": "Grouped by shell and plane from TLE"
  },
  {
    "OBJECT_NAME": "STARLINK-3597",
    "OBJECT_ID": "22022AY",
    "EPOCH": "2025-11-11T00:33:51.891264",
    "MEAN_MOTION": 15.08844575,
    "ECCENTRICITY": 0.0001731,
    "INCLINATION": 53.2152,
    "RA_OF_ASC_NODE": 171.8353,
    "ARG_OF_PERICENTER": 83.3349,
    "MEAN_ANOMALY": 276.784,
    "EPHEMERIS_TYPE": 0,
    "CLASSIFICATION_TYPE": "U",
    "NORAD_CAT_ID": 51898,
    "ELEMENT_SET_NO": 999,
    "REV_AT_EPOCH": 20538,
    "BSTAR": 4.5609e-05,
    "MEAN_MOTION_DOT": 4.38e-06,
    "MEAN_MOTION_DDOT": 0.0,
    "TLE_LINE1": "1 51898U 22022AY  25315.02351726  .00000438  00000+0  45609-4 0  9993",
    "TLE_LINE2": "2 51898  53.2152 171.8353 0001731  83.3349 276.7840 15.08844575205380",
    "COMMENT": "Grouped by shell and plane from TLE"
  }
]